[{"OBJECT_NAME":"OPS 9751","OBJECT_ID":"1977-038A","EPOCH":"2026-03-06T20:21:38.628864","MEAN_MOTION":1.0027305,"ECCENTRICITY":0.1304508,"INCLINATION":7.5055,"RA_OF_ASC_NODE":332.0779,"ARG_OF_PERICENTER":130.3416,"MEAN_ANOMALY":100.204,"EPHEMERIS_TYPE":0,"CLASSIFICATION_TYPE":"U","NORAD_CAT_ID":10016,"ELEMENT_SET_NO":999,"REV_AT_EPOCH":2542,"BSTAR":0,"MEAN_MOTION_DOT":-3.24e-6,"MEAN_MOTION_DDOT":0},{"OBJECT_NAME":"INTELSAT 4A-F4","OBJECT_ID":"1977-041A","EPOCH":"2026-03-06T19:17:18.822048","MEAN_MOTION":0.99441383,"ECCENTRICITY":0.0012805,"INCLINATION":9.0983,"RA_OF_ASC_NODE":311.7961,"ARG_OF_PERICENTER":279.4621,"MEAN_ANOMALY":263.8208,"EPHEMERIS_TYPE":0,"CLASSIFICATION_TYPE":"U","NORAD_CAT_ID":10024,"ELEMENT_SET_NO":999,"REV_AT_EPOCH":4596,"BSTAR":0,"MEAN_MOTION_DOT":8.5e-7,"MEAN_MOTION_DDOT":0},{"OBJECT_NAME":"ATLAS CENTAUR R/B","OBJECT_ID":"1977-041B","EPOCH":"2026-03-06T14:41:19.042944","MEAN_MOTION":2.228835,"ECCENTRICITY":0.71837035,"INCLINATION":21.6105,"RA_OF_ASC_NODE":292.441,"ARG_OF_PERICENTER":68.8161,"MEAN_ANOMALY":353.5195,"EPHEMERIS_TYPE":0,"CLASSIFICATION_TYPE":"U","NORAD_CAT_ID":10025,"ELEMENT_SET_NO":999,"REV_AT_EPOCH":39567,"BSTAR":0.0019605991,"MEAN_MOTION_DOT":-3.3e-7,"MEAN_MOTION_DDOT":0},{"OBJECT_NAME":"GOES 2","OBJECT_ID":"1977-048A","EPOCH":"2026-03-07T00:44:13.786368","MEAN_MOTION":0.99395943,"ECCENTRICITY":0.0013906,"INCLINATION":6.663,"RA_OF_ASC_NODE":294.1996,"ARG_OF_PERICENTER":47.8889,"MEAN_ANOMALY":301.0662,"EPHEMERIS_TYPE":0,"CLASSIFICATION_TYPE":"U","NORAD_CAT_ID":10061,"ELEMENT_SET_NO":999,"REV_AT_EPOCH":4525,"BSTAR":0,"MEAN_MOTION_DOT":-1.97e-6,"MEAN_MOTION_DDOT":0},{"OBJECT_NAME":"RADUGA 3","OBJECT_ID":"1977-071A","EPOCH":"2026-03-07T02:07:58.255680","MEAN_MOTION":1.00314082,"ECCENTRICITY":0.000865,"INCLINATION":4.3795,"RA_OF_ASC_NODE":274.8911,"ARG_OF_PERICENTER":305.5883,"MEAN_ANOMALY":17.305,"EPHEMERIS_TYPE":0,"CLASSIFICATION_TYPE":"U","NORAD_CAT_ID":10159,"ELEMENT_SET_NO":999,"REV_AT_EPOCH":17601,"BSTAR":0,"MEAN_MOTION_DOT":1.41e-6,"MEAN_MOTION_DDOT":0},{"OBJECT_NAME":"SL-6 R/B(2)","OBJECT_ID":"1977-068D","EPOCH":"2026-03-07T02:34:07.417056","MEAN_MOTION":1.99804003,"ECCENTRICITY":0.7368526,"INCLINATION":62.2855,"RA_OF_ASC_NODE":330.7752,"ARG_OF_PERICENTER":46.8091,"MEAN_ANOMALY":354.6047,"EPHEMERIS_TYPE":0,"CLASSIFICATION_TYPE":"U","NORAD_CAT_ID":10167,"ELEMENT_SET_NO":999,"REV_AT_EPOCH":27877,"BSTAR":0,"MEAN_MOTION_DOT":-1.224e-5,"MEAN_MOTION_DDOT":0},{"OBJECT_NAME":"SIRIO","OBJECT_ID":"1977-080A","EPOCH":"2026-03-07T02:17:57.298848","MEAN_MOTION":1.00271115,"ECCENTRICITY":0.0005463,"INCLINATION":7.4514,"RA_OF_ASC_NODE":299.9213,"ARG_OF_PERICENTER":149.1078,"MEAN_ANOMALY":185.9905,"EPHEMERIS_TYPE":0,"CLASSIFICATION_TYPE":"U","NORAD_CAT_ID":10294,"ELEMENT_SET_NO":999,"REV_AT_EPOCH":11689,"BSTAR":0,"MEAN_MOTION_DOT":-1.03e-6,"MEAN_MOTION_DDOT":0},{"OBJECT_NAME":"EKRAN 2","OBJECT_ID":"1977-092A","EPOCH":"2026-03-07T00:41:51.514944","MEAN_MOTION":1.0027792,"ECCENTRICITY":0.0042513,"INCLINATION":4.499,"RA_OF_ASC_NODE":276.0343,"ARG_OF_PERICENTER":16.8309,"MEAN_ANOMALY":341.4835,"EPHEMERIS_TYPE":0,"CLASSIFICATION_TYPE":"U","NORAD_CAT_ID":10365,"ELEMENT_SET_NO":999,"REV_AT_EPOCH":13382,"BSTAR":0,"MEAN_MOTION_DOT":-3.04e-6,"MEAN_MOTION_DDOT":0},{"OBJECT_NAME":"MOLNIYA 3-8","OBJECT_ID":"1977-105A","EPOCH":"2026-02-22T11:32:46.652928","MEAN_MOTION":2.00471938,"ECCENTRICITY":0.6734693,"INCLINATION":63.7217,"RA_OF_ASC_NODE":188.2295,"ARG_OF_PERICENTER":277.7504,"MEAN_ANOMALY":16.2592,"EPHEMERIS_TYPE":0,"CLASSIFICATION_TYPE":"U","NORAD_CAT_ID":10455,"ELEMENT_SET_NO":999,"REV_AT_EPOCH":35414,"BSTAR":0,"MEAN_MOTION_DOT":1.128e-5,"MEAN_MOTION_DDOT":0},{"OBJECT_NAME":"SL-6 R/B(2)","OBJECT_ID":"1977-105E","EPOCH":"2026-03-01T16:23:01.906944","MEAN_MOTION":1.97323401,"ECCENTRICITY":0.69640298,"INCLINATION":63.8927,"RA_OF_ASC_NODE":226.2838,"ARG_OF_PERICENTER":280.3311,"MEAN_ANOMALY":13.7405,"EPHEMERIS_TYPE":0,"CLASSIFICATION_TYPE":"U","NORAD_CAT_ID":10485,"ELEMENT_SET_NO":999,"REV_AT_EPOCH":34803,"BSTAR":0,"MEAN_MOTION_DOT":1.88e-6,"MEAN_MOTION_DDOT":0},{"OBJECT_NAME":"METEOSAT-1","OBJECT_ID":"1977-108A","EPOCH":"2026-03-06T20:51:52.892352","MEAN_MOTION":1.00291174,"ECCENTRICITY":0.0010755,"INCLINATION":5.3336,"RA_OF_ASC_NODE":282.3072,"ARG_OF_PERICENTER":84.7213,"MEAN_ANOMALY":123.2212,"EPHEMERIS_TYPE":0,"CLASSIFICATION_TYPE":"U","NORAD_CAT_ID":10489,"ELEMENT_SET_NO":999,"REV_AT_EPOCH":13618,"BSTAR":0,"MEAN_MOTION_DOT":8.0e-7,"MEAN_MOTION_DDOT":0},{"OBJECT_NAME":"INTELSAT 4A-F3","OBJECT_ID":"1978-002A","EPOCH":"2026-03-06T20:55:22.556640","MEAN_MOTION":0.99910587,"ECCENTRICITY":0.0004773,"INCLINATION":9.1857,"RA_OF_ASC_NODE":313.3315,"ARG_OF_PERICENTER":314.5995,"MEAN_ANOMALY":235.742,"EPHEMERIS_TYPE":0,"CLASSIFICATION_TYPE":"U","NORAD_CAT_ID":10557,"ELEMENT_SET_NO":999,"REV_AT_EPOCH":4772,"BSTAR":0,"MEAN_MOTION_DOT":8.5e-7,"MEAN_MOTION_DDOT":0},{"OBJECT_NAME":"IUE","OBJECT_ID":"1978-012A","EPOCH":"2026-03-06T05:33:16.165440","MEAN_MOTION":1.00059449,"ECCENTRICITY":0.14648279,"INCLINATION":36.978,"RA_OF_ASC_NODE":289.9791,"ARG_OF_PERICENTER":265.5707,"MEAN_ANOMALY":285.0989,"EPHEMERIS_TYPE":0,"CLASSIFICATION_TYPE":"U","NORAD_CAT_ID":10637,"ELEMENT_SET_NO":999,"REV_AT_EPOCH":12804,"BSTAR":0,"MEAN_MOTION_DOT":-3.0e-8,"MEAN_MOTION_DDOT":0},{"OBJECT_NAME":"ATLAS CENTAUR R/B","OBJECT_ID":"1978-002B","EPOCH":"2026-03-06T13:09:20.893536","MEAN_MOTION":2.21861562,"ECCENTRICITY":0.71689367,"INCLINATION":21.8883,"RA_OF_ASC_NODE":14.5828,"ARG_OF_PERICENTER":112.4539,"MEAN_ANOMALY":6.0261,"EPHEMERIS_TYPE":0,"CLASSIFICATION_TYPE":"U","NORAD_CAT_ID":10722,"ELEMENT_SET_NO":999,"REV_AT_EPOCH":28233,"BSTAR":0.001414644,"MEAN_MOTION_DOT":-1.1e-6,"MEAN_MOTION_DDOT":0},{"OBJECT_NAME":"INTELSAT 4A-F6","OBJECT_ID":"1978-035A","EPOCH":"2026-03-06T23:18:38.647296","MEAN_MOTION":1.00293067,"ECCENTRICITY":0.0008695,"INCLINATION":8.9677,"RA_OF_ASC_NODE":312.3527,"ARG_OF_PERICENTER":319.2137,"MEAN_ANOMALY":22.352,"EPHEMERIS_TYPE":0,"CLASSIFICATION_TYPE":"U","NORAD_CAT_ID":10778,"ELEMENT_SET_NO":999,"REV_AT_EPOCH":12113,"BSTAR":0,"MEAN_MOTION_DOT":-2.91e-6,"MEAN_MOTION_DDOT":0},{"OBJECT_NAME":"ATLAS CENTAUR R/B","OBJECT_ID":"1978-035B","EPOCH":"2026-03-06T21:46:16.241088","MEAN_MOTION":2.22750603,"ECCENTRICITY":0.7182625,"INCLINATION":21.874,"RA_OF_ASC_NODE":41.7894,"ARG_OF_PERICENTER":182.6122,"MEAN_ANOMALY":169.1805,"EPHEMERIS_TYPE":0,"CLASSIFICATION_TYPE":"U","NORAD_CAT_ID":10779,"ELEMENT_SET_NO":999,"REV_AT_EPOCH":38961,"BSTAR":0.00039308,"MEAN_MOTION_DOT":-8.0e-7,"MEAN_MOTION_DDOT":0},{"OBJECT_NAME":"OPS 8790","OBJECT_ID":"1978-038A","EPOCH":"2026-03-07T00:19:31.156320","MEAN_MOTION":1.00478639,"ECCENTRICITY":0.0017381,"INCLINATION":3.7491,"RA_OF_ASC_NODE":323.0157,"ARG_OF_PERICENTER":303.655,"MEAN_ANOMALY":284.0076,"EPHEMERIS_TYPE":0,"CLASSIFICATION_TYPE":"U","NORAD_CAT_ID":10787,"ELEMENT_SET_NO":999,"REV_AT_EPOCH":2423,"BSTAR":0,"MEAN_MOTION_DOT":1.35e-6,"MEAN_MOTION_DDOT":0}]
