OPS 9751                
1 10016U 77038A   26065.84836376 -.00000324  00000+0  00000+0 0  9995
2 10016   7.5055 332.0779 1304508 130.3416 100.2040  1.00273050 25420
INTELSAT 4A-F4          
1 10024U 77041A   26065.80369007  .00000085  00000+0  00000+0 0  9999
2 10024   9.0983 311.7961 0012805 279.4621 263.8208  0.99441383 45967
ATLAS CENTAUR R/B       
1 10025U 77041B   26065.61202596 -.00000033  00000+0  19606-2 0  9997
2 10025  21.6105 292.4410 7183703  68.8161 353.5195  2.22883500395677
GOES 2                  
1 10061U 77048A   26066.03071512 -.00000197  00000+0  00000+0 0  9999
2 10061   6.6630 294.1996 0013906  47.8889 301.0662  0.99395943 45259
RADUGA 3                
1 10159U 77071A   26066.08886870  .00000141  00000+0  00000+0 0  9997
2 10159   4.3795 274.8911 0008650 305.5883  17.3050  1.00314082176019
SL-6 R/B(2)             
1 10167U 77068D   26066.10703029 -.00001224  00000+0  00000+0 0  9993
2 10167  62.2855 330.7752 7368526  46.8091 354.6047  1.99804003278771
SIRIO                   
1 10294U 77080A   26066.09580207 -.00000103  00000+0  00000+0 0  9992
2 10294   7.4514 299.9213 0005463 149.1078 185.9905  1.00271115116892
EKRAN 2                 
1 10365U 77092A   26066.02906846 -.00000304  00000+0  00000+0 0  9991
2 10365   4.4990 276.0343 0042513  16.8309 341.4835  1.00277920133823
MOLNIYA 3-8             
1 10455U 77105A   26053.48109552  .00001128  00000+0  00000+0 0  9995
2 10455  63.7217 188.2295 6734693 277.7504  16.2592  2.00471938354144
SL-6 R/B(2)             
1 10485U 77105E   26060.68266096  .00000188  00000+0  00000+0 0  9990
2 10485  63.8927 226.2838 6964029 280.3311  13.7405  1.97323401348038
METEOSAT-1              
1 10489U 77108A   26065.86936218  .00000080  00000+0  00000+0 0  9993
2 10489   5.3336 282.3072 0010755  84.7213 123.2212  1.00291174136188
INTELSAT 4A-F3          
1 10557U 78002A   26065.87178885  .00000085  00000+0  00000+0 0  9997
2 10557   9.1857 313.3315 0004773 314.5995 235.7420  0.99910587 47727
IUE                     
1 10637U 78012A   26065.23143710 -.00000003  00000+0  00000+0 0  9997
2 10637  36.9780 289.9791 1464827 265.5707 285.0989  1.00059449128049
ATLAS CENTAUR R/B       
1 10722U 78002B   26065.54815849 -.00000110  00000+0  14146-2 0  9992
2 10722  21.8883  14.5828 7168936 112.4539   6.0261  2.21861562282333
INTELSAT 4A-F6          
1 10778U 78035A   26065.97128064 -.00000291  00000+0  00000+0 0  9993
2 10778   8.9677 312.3527 0008695 319.2137  22.3520  1.00293067121139
ATLAS CENTAUR R/B       
1 10779U 78035B   26065.90713242 -.00000080  00000+0  39308-3 0  9998
2 10779  21.8740  41.7894 7182625 182.6122 169.1805  2.22750603389618
OPS 8790                
1 10787U 78038A   26066.01355505  .00000135  00000+0  00000+0 0  9990
2 10787   3.7491 323.0157 0017381 303.6550 284.0076  1.00478639 24238
